IRIDIUM 57              
1 25273U 98019B   24273.64865882  .00001275  00000+0  43744-3 0  9990
2 25273  86.3914 254.3373 0002309  90.0958 270.0503 14.35426358387404
IRIDIUM 63              
1 25286U 98021B   24273.77051022  .00001478  00000+0  50211-3 0  9996
2 25286  86.4058 191.2469 0002466  79.6989 280.4486 14.36034209386465
IRIDIUM 69              
1 25319U 98026A   24273.87791417  .00002263  00000+0  70841-3 0  9992
2 25319  86.4033 205.2543 0003719 121.3168 238.8396 14.40308572385828
IRIDIUM 71              
1 25320U 98026B   24273.50831344  .00001708  00000+0  53005-3 0  9994
2 25320  86.4042 200.1558 0001455 144.8767 215.2528 14.40601809386051
IRIDIUM 73              
1 25344U 98032C   24273.66098637  .00001795  00000+0  44969-3 0  9999
2 25344  86.4468 157.4027 0002603  96.2446 263.9055 14.50926085392772
IRIDIUM 82              
1 25467U 98051A   24273.86989604  .00027520  00000+0  12325-2 0  9995
2 25467  86.3723 235.9052 0116013 192.0723 167.7735 15.15177210384312
